CCSDS_OMM_VERS = 2.0
CREATION_DATE  = 
ORIGINATOR     = 

OBJECT_NAME    = SL-14 R/B
OBJECT_ID      = 1986-046B
CENTER_NAME    = EARTH
REF_FRAME      = TEME
TIME_SYSTEM    = UTC
MEAN_ELEMENT_THEORY = SGP/SGP4

EPOCH          = 2026-01-16T06:28:11.364672
MEAN_MOTION    = 14.85528649
ECCENTRICITY   = .0024119
INCLINATION    = 82.4835
RA_OF_ASC_NODE = 129.7062
ARG_OF_PERICENTER = 44.0863
MEAN_ANOMALY   = 316.2271

EPHEMERIS_TYPE = 0
CLASSIFICATION_TYPE = U
NORAD_CAT_ID   = 16792
ELEMENT_SET_NO = 999
REV_AT_EPOCH   = 11862
BSTAR          = .39261043E-4
MEAN_MOTION_DOT = .365E-5
MEAN_MOTION_DDOT = 0

CCSDS_OMM_VERS = 2.0
CREATION_DATE  = 
ORIGINATOR     = 

OBJECT_NAME    = SL-14 R/B
OBJECT_ID      = 1986-055B
CENTER_NAME    = EARTH
REF_FRAME      = TEME
TIME_SYSTEM    = UTC
MEAN_ELEMENT_THEORY = SGP/SGP4

EPOCH          = 2026-01-15T09:13:05.286144
MEAN_MOTION    = 14.85571579
ECCENTRICITY   = .0019762
INCLINATION    = 82.5206
RA_OF_ASC_NODE = 176.7574
ARG_OF_PERICENTER = 145.0145
MEAN_ANOMALY   = 238.4366

EPHEMERIS_TYPE = 0
CLASSIFICATION_TYPE = U
NORAD_CAT_ID   = 16882
ELEMENT_SET_NO = 999
REV_AT_EPOCH   = 11145
BSTAR          = .44001605E-4
MEAN_MOTION_DOT = .406E-5
MEAN_MOTION_DDOT = 0

CCSDS_OMM_VERS = 2.0
CREATION_DATE  = 
ORIGINATOR     = 

OBJECT_NAME    = AJISAI (EGS)
OBJECT_ID      = 1986-061A
CENTER_NAME    = EARTH
REF_FRAME      = TEME
TIME_SYSTEM    = UTC
MEAN_ELEMENT_THEORY = SGP/SGP4

EPOCH          = 2026-01-16T06:47:45.259008
MEAN_MOTION    = 12.44514990
ECCENTRICITY   = .00112985
INCLINATION    = 50.0077
RA_OF_ASC_NODE = 254.5000
ARG_OF_PERICENTER = 152.6605
MEAN_ANOMALY   = 313.0144

EPHEMERIS_TYPE = 0
CLASSIFICATION_TYPE = U
NORAD_CAT_ID   = 16908
ELEMENT_SET_NO = 999
REV_AT_EPOCH   = 46147
BSTAR          = .2401239E-3
MEAN_MOTION_DOT = -.63E-6
MEAN_MOTION_DDOT = 0

CCSDS_OMM_VERS = 2.0
CREATION_DATE  = 
ORIGINATOR     = 

OBJECT_NAME    = COSMOS 1812
OBJECT_ID      = 1987-003A
CENTER_NAME    = EARTH
REF_FRAME      = TEME
TIME_SYSTEM    = UTC
MEAN_ELEMENT_THEORY = SGP/SGP4

EPOCH          = 2026-01-16T03:04:13.183968
MEAN_MOTION    = 15.84327503
ECCENTRICITY   = .00026035
INCLINATION    = 82.4837
RA_OF_ASC_NODE = 254.5596
ARG_OF_PERICENTER = 49.4296
MEAN_ANOMALY   = 310.7199

EPHEMERIS_TYPE = 0
CLASSIFICATION_TYPE = U
NORAD_CAT_ID   = 17295
ELEMENT_SET_NO = 999
REV_AT_EPOCH   = 13608
BSTAR          = .50363956E-3
MEAN_MOTION_DOT = .115076E-2
MEAN_MOTION_DDOT = 0

CCSDS_OMM_VERS = 2.0
CREATION_DATE  = 
ORIGINATOR     = 

OBJECT_NAME    = SL-14 R/B
OBJECT_ID      = 1987-024B
CENTER_NAME    = EARTH
REF_FRAME      = TEME
TIME_SYSTEM    = UTC
MEAN_ELEMENT_THEORY = SGP/SGP4

EPOCH          = 2026-01-15T18:48:03.465216
MEAN_MOTION    = 14.86068204
ECCENTRICITY   = .00196935
INCLINATION    = 82.5301
RA_OF_ASC_NODE = 142.4756
ARG_OF_PERICENTER = 77.2118
MEAN_ANOMALY   = 283.1298

EPHEMERIS_TYPE = 0
CLASSIFICATION_TYPE = U
NORAD_CAT_ID   = 17567
ELEMENT_SET_NO = 999
REV_AT_EPOCH   = 8027
BSTAR          = .37426168E-4
MEAN_MOTION_DOT = .353E-5
MEAN_MOTION_DDOT = 0

CCSDS_OMM_VERS = 2.0
CREATION_DATE  = 
ORIGINATOR     = 

OBJECT_NAME    = COSMOS 1833
OBJECT_ID      = 1987-027A
CENTER_NAME    = EARTH
REF_FRAME      = TEME
TIME_SYSTEM    = UTC
MEAN_ELEMENT_THEORY = SGP/SGP4

EPOCH          = 2026-01-16T06:19:35.581728
MEAN_MOTION    = 14.13044834
ECCENTRICITY   = .00241669
INCLINATION    = 70.9192
RA_OF_ASC_NODE = 76.2074
ARG_OF_PERICENTER = 284.1606
MEAN_ANOMALY   = 75.6830

EPHEMERIS_TYPE = 0
CLASSIFICATION_TYPE = U
NORAD_CAT_ID   = 17589
ELEMENT_SET_NO = 999
REV_AT_EPOCH   = 291
BSTAR          = .18532846E-3
MEAN_MOTION_DOT = .299E-5
MEAN_MOTION_DDOT = 0

CCSDS_OMM_VERS = 2.0
CREATION_DATE  = 
ORIGINATOR     = 

OBJECT_NAME    = SL-16 R/B
OBJECT_ID      = 1987-027B
CENTER_NAME    = EARTH
REF_FRAME      = TEME
TIME_SYSTEM    = UTC
MEAN_ELEMENT_THEORY = SGP/SGP4

EPOCH          = 2026-01-16T07:38:38.338656
MEAN_MOTION    = 14.17160277
ECCENTRICITY   = .0006419
INCLINATION    = 71.0033
RA_OF_ASC_NODE = 26.8522
ARG_OF_PERICENTER = 222.8229
MEAN_ANOMALY   = 137.2395

EPHEMERIS_TYPE = 0
CLASSIFICATION_TYPE = U
NORAD_CAT_ID   = 17590
ELEMENT_SET_NO = 999
REV_AT_EPOCH   = 792
BSTAR          = -.42522946E-4
MEAN_MOTION_DOT = -.134E-5
MEAN_MOTION_DDOT = 0

CCSDS_OMM_VERS = 2.0
CREATION_DATE  = 
ORIGINATOR     = 

OBJECT_NAME    = SL-14 R/B
OBJECT_ID      = 1987-038B
CENTER_NAME    = EARTH
REF_FRAME      = TEME
TIME_SYSTEM    = UTC
MEAN_ELEMENT_THEORY = SGP/SGP4

EPOCH          = 2026-01-16T03:43:36.498720
MEAN_MOTION    = 14.85301554
ECCENTRICITY   = .00188177
INCLINATION    = 82.5026
RA_OF_ASC_NODE = 346.2822
ARG_OF_PERICENTER = 343.1241
MEAN_ANOMALY   = 16.9346

EPHEMERIS_TYPE = 0
CLASSIFICATION_TYPE = U
NORAD_CAT_ID   = 17912
ELEMENT_SET_NO = 999
REV_AT_EPOCH   = 7143
BSTAR          = .40320408E-4
MEAN_MOTION_DOT = .371E-5
MEAN_MOTION_DDOT = 0

CCSDS_OMM_VERS = 2.0
CREATION_DATE  = 
ORIGINATOR     = 

OBJECT_NAME    = COSMOS 1844
OBJECT_ID      = 1987-041A
CENTER_NAME    = EARTH
REF_FRAME      = TEME
TIME_SYSTEM    = UTC
MEAN_ELEMENT_THEORY = SGP/SGP4

EPOCH          = 2026-01-16T01:42:31.356000
MEAN_MOTION    = 14.14537444
ECCENTRICITY   = .00282768
INCLINATION    = 70.8997
RA_OF_ASC_NODE = 145.1619
ARG_OF_PERICENTER = 102.3633
MEAN_ANOMALY   = 258.0657

EPHEMERIS_TYPE = 0
CLASSIFICATION_TYPE = U
NORAD_CAT_ID   = 17973
ELEMENT_SET_NO = 999
REV_AT_EPOCH   = 99614
BSTAR          = -.12135936E-3
MEAN_MOTION_DOT = -.282E-5
MEAN_MOTION_DDOT = 0

CCSDS_OMM_VERS = 2.0
CREATION_DATE  = 
ORIGINATOR     = 

OBJECT_NAME    = SL-14 R/B
OBJECT_ID      = 1987-055B
CENTER_NAME    = EARTH
REF_FRAME      = TEME
TIME_SYSTEM    = UTC
MEAN_ELEMENT_THEORY = SGP/SGP4

EPOCH          = 2026-01-16T05:00:21.388032
MEAN_MOTION    = 14.85559447
ECCENTRICITY   = .00205573
INCLINATION    = 82.4976
RA_OF_ASC_NODE = 38.4969
ARG_OF_PERICENTER = 182.7860
MEAN_ANOMALY   = 177.3245

EPHEMERIS_TYPE = 0
CLASSIFICATION_TYPE = U
NORAD_CAT_ID   = 18153
ELEMENT_SET_NO = 999
REV_AT_EPOCH   = 6214
BSTAR          = .37669081E-4
MEAN_MOTION_DOT = .351E-5
MEAN_MOTION_DDOT = 0

CCSDS_OMM_VERS = 2.0
CREATION_DATE  = 
ORIGINATOR     = 

OBJECT_NAME    = COSMOS 1867
OBJECT_ID      = 1987-060A
CENTER_NAME    = EARTH
REF_FRAME      = TEME
TIME_SYSTEM    = UTC
MEAN_ELEMENT_THEORY = SGP/SGP4

EPOCH          = 2026-01-16T06:06:30.717216
MEAN_MOTION    = 14.31492745
ECCENTRICITY   = .00138857
INCLINATION    = 65.0111
RA_OF_ASC_NODE = 93.5485
ARG_OF_PERICENTER = 274.4867
MEAN_ANOMALY   = 85.4631

EPHEMERIS_TYPE = 0
CLASSIFICATION_TYPE = U
NORAD_CAT_ID   = 18187
ELEMENT_SET_NO = 999
REV_AT_EPOCH   = 1243
BSTAR          = .14085644E-4
MEAN_MOTION_DOT = -.63E-6
MEAN_MOTION_DDOT = 0

CCSDS_OMM_VERS = 2.0
CREATION_DATE  = 
ORIGINATOR     = 

OBJECT_NAME    = SL-14 R/B
OBJECT_ID      = 1988-001B
CENTER_NAME    = EARTH
REF_FRAME      = TEME
TIME_SYSTEM    = UTC
MEAN_ELEMENT_THEORY = SGP/SGP4

EPOCH          = 2026-01-16T03:11:36.384864
MEAN_MOTION    = 14.85462042
ECCENTRICITY   = .00193392
INCLINATION    = 82.5113
RA_OF_ASC_NODE = 244.7990
ARG_OF_PERICENTER = 54.9111
MEAN_ANOMALY   = 305.3915

EPHEMERIS_TYPE = 0
CLASSIFICATION_TYPE = U
NORAD_CAT_ID   = 18749
ELEMENT_SET_NO = 999
REV_AT_EPOCH   = 3422
BSTAR          = .31259692E-4
MEAN_MOTION_DOT = .295E-5
MEAN_MOTION_DDOT = 0

