SL-14 R/B               
1 16792U 86046B   26016.26957598  .00000365  00000+0  39261-4 0  9993
2 16792  82.4835 129.7062 0024119  44.0863 316.2271 14.85528649118628
SL-14 R/B               
1 16882U 86055B   26015.38408896  .00000406  00000+0  44002-4 0  9992
2 16882  82.5206 176.7574 0019762 145.0145 238.4366 14.85571579111458
AJISAI (EGS)            
1 16908U 86061A   26016.28316272 -.00000063  00000+0  24012-3 0  9992
2 16908  50.0077 254.5000 0011298 152.6605 313.0144 12.44514990461474
COSMOS 1812             
1 17295U 87003A   26016.12793037  .00115076  00000+0  50364-3 0  9999
2 17295  82.4837 254.5596 0002603  49.4296 310.7199 15.84327503136085
SL-14 R/B               
1 17567U 87024B   26015.78337344  .00000353  00000+0  37426-4 0  9996
2 17567  82.5301 142.4756 0019693  77.2118 283.1298 14.86068204 80279
COSMOS 1833             
1 17589U 87027A   26016.26360627  .00000299  00000+0  18533-3 0  9993
2 17589  70.9192  76.2074 0024166 284.1606  75.6830 14.13044834  2915
SL-16 R/B               
1 17590U 87027B   26016.31849929 -.00000134  00000+0 -42523-4 0  9995
2 17590  71.0033  26.8522 0006419 222.8229 137.2395 14.17160277  7924
SL-14 R/B               
1 17912U 87038B   26016.15528355  .00000371  00000+0  40320-4 0  9998
2 17912  82.5026 346.2822 0018817 343.1241  16.9346 14.85301554 71435
COSMOS 1844             
1 17973U 87041A   26016.07119625 -.00000282  00000+0 -12136-3 0  9992
2 17973  70.8997 145.1619 0028276 102.3633 258.0657 14.14537444996148
SL-14 R/B               
1 18153U 87055B   26016.20858088  .00000351  00000+0  37669-4 0  9990
2 18153  82.4976  38.4969 0020557 182.7860 177.3245 14.85559447 62140
COSMOS 1867             
1 18187U 87060A   26016.25452219 -.00000063  00000+0  14086-4 0  9993
2 18187  65.0111  93.5485 0013885 274.4867  85.4631 14.31492745 12435
SL-14 R/B               
1 18749U 88001B   26016.13306001  .00000295  00000+0  31260-4 0  9996
2 18749  82.5113 244.7990 0019339  54.9111 305.3915 14.85462042 34225
